NORAD_CAT_ID,OBJECT_NAME,OBJECT_TYPE,EPOCH,MEAN_MOTION,ECCENTRICITY,INCLINATION,RA_OF_ASC_NODE,ARG_OF_PERICENTER,MEAN_ANOMALY,BSTAR,MEAN_MOTION_DOT,MEAN_MOTION_DDOT,TLE_LINE0,TLE_LINE1,TLE_LINE2,SEMIMAJOR_AXIS,PERIOD,APOGEE,PERIGEE,DECAYED
52108.0,STARLINK-3698,PAYLOAD,2022-04-20 14:00:01,15.73213752,0.0001235,53.2151,343.8029,132.9628,91.0993,-2.7418e-05,-4.468e-05,0.0,0 STARLINK-3698,1 52108U 22029W   22110.58334491 -.00004468  00000-0 -27418-4 0  9994,2 52108  53.2151 343.8029 0001235 132.9628  91.0993 15.73213752  3703,6727.856,91.532,350.552,348.89,0.0
52108.0,STARLINK-3698,PAYLOAD,2022-04-20 22:00:00,15.73230321,0.0001054,53.2153,342.1554,125.1507,187.8477,-0.00046373,-0.0006527999999999,0.0,0 STARLINK-3698,1 52108U 22029W   22110.91667824 -.00065280  00000-0 -46373-3 0  9999,2 52108  53.2153 342.1554 0001054 125.1507 187.8477 15.73230321  3699,6727.809,91.531,350.3830000000001,348.965,0.0
52108.0,STARLINK-3698,PAYLOAD,2022-04-21 06:00:00,15.72923307,0.0001069,53.2165,340.4998,135.6769,266.2907,0.0021822,0.00313629,0.0,0 STARLINK-3698,1 52108U 22029W   22111.25001157  .00313629  00000-0  21822-2 0  9990,2 52108  53.2165 340.4998 0001069 135.6769 266.2907 15.72923307  6456,6728.684,91.549,351.26800000000014,349.83,0.0
52108.0,STARLINK-3698,PAYLOAD,2022-04-21 14:00:01,15.73203025,0.0001328,53.2157,338.8542,124.5174,6.3316,-0.00023937,-0.00034082,0.0,0 STARLINK-3698,1 52108U 22029W   22111.58334491 -.00034082  00000-0 -23937-3 0  9991,2 52108  53.2157 338.8542 0001328 124.5174   6.3316 15.73203025  3709,6727.887,91.533,350.645,348.858,0.0
52108.0,STARLINK-3698,PAYLOAD,2022-04-21 22:00:00,15.73219055,0.0001232,53.2155,337.2067,115.7679,104.0354,3.8868e-05,4.842e-05,0.0,0 STARLINK-3698,1 52108U 22029W   22111.91667824  .00004842  00000-0  38868-4 0  9996,2 52108  53.2155 337.2067 0001232 115.7679 104.0354 15.73219055  3717,6727.840999999999,91.532,350.535,348.87699999999984,0.0
52108.0,STARLINK-3698,PAYLOAD,2022-04-22 14:00:01,15.73247147,0.0001274,53.2152,333.9054,128.6668,269.0346,-0.00046608,-0.00065654,0.0,0 STARLINK-3698,1 52108U 22029W   22112.58334491 -.00065654  00000-0 -46608-3 0  9991,2 52108  53.2152 333.9054 0001274 128.6668 269.0346 15.73247147  3705,6727.761,91.53,350.483,348.769,0.0
52108.0,STARLINK-3698,PAYLOAD,2022-04-22 22:00:00,15.73193811,0.0001242,53.2153,332.2574,116.718,9.9448,-0.00046743,-0.00065692,0.0,0 STARLINK-3698,1 52108U 22029W   22112.91667824 -.00065692  00000-0 -46743-3 0  9999,2 52108  53.2153 332.2574 0001242 116.7180   9.9448 15.73193811  6713,6727.913000000001,91.534,350.61300000000006,348.94199999999995,0.0
52108.0,STARLINK-3698,PAYLOAD,2022-04-23 06:00:02,15.73146941,0.0001033,53.2154,330.6077,124.5493,91.0849,0.00012683,0.00017176,0.0,0 STARLINK-3698,1 52108U 22029W   22113.25002315  .00017176  00000-0  12683-3 0  9993,2 52108  53.2154 330.6077 0001033 124.5493  91.0849 15.73146941  6760,6728.045999999999,91.536,350.606,349.216,0.0
52108.0,STARLINK-3698,PAYLOAD,2022-04-23 14:00:01,15.73164704,0.0001153,53.2157,328.9571,129.6503,174.7826,0.00047507,0.00066481,0.0,0 STARLINK-3698,1 52108U 22029W   22113.58334491  .00066481  00000-0  47507-3 0  9998,2 52108  53.2157 328.9571 0001153 129.6503 174.7826 15.73164704  3693,6727.996,91.535,350.63699999999994,349.085,0.0
52108.0,STARLINK-3698,PAYLOAD,2022-04-23 20:00:01,15.73233917,0.0001098,53.2153,327.7217,118.8803,162.2461,-0.00045392,-0.00063933,0.0,0 STARLINK-3698,1 52108U 22029W   22113.83334491 -.00063933  00000-0 -45392-3 0  9997,2 52108  53.2153 327.7217 0001098 118.8803 162.2461 15.73233917  6855,6727.7980000000025,91.531,350.402,348.925,0.0
52108.0,STARLINK-3698,PAYLOAD,2022-04-24 06:00:00,15.73257002,0.0001176,53.2148,325.6592,117.692,4.6046,-0.0005211,-0.00073295,0.0,0 STARLINK-3698,1 52108U 22029W   22114.25001157 -.00073295  00000-0 -52110-3 0  9992,2 52108  53.2148 325.6592 0001176 117.6920   4.6046 15.73257002  6923,6727.733,91.53,350.389,348.806,0.0
52108.0,STARLINK-3698,PAYLOAD,2022-04-24 14:00:01,15.73221493,0.0001349,53.2151,324.0086,126.82,84.4449,-2.5235e-05,-4.163e-05,0.0,0 STARLINK-3698,1 52108U 22029W   22114.58334491 -.00004163  00000-0 -25235-4 0  9995,2 52108  53.2151 324.0086 0001349 126.8200  84.4449 15.73221493  6976,6727.834,91.532,350.606,348.791,0.0
52108.0,STARLINK-3698,PAYLOAD,2022-04-25 06:00:00,15.73206648,0.0001230999999999,53.2152,320.7107,115.299,273.8219,-0.00043296,-0.00060961,0.0,0 STARLINK-3698,1 52108U 22029W   22115.25001157 -.00060961  00000-0 -43296-3 0  9994,2 52108  53.2152 320.7107 0001231 115.2990 273.8219 15.73206648  7089,6727.876,91.533,350.569,348.913,0.0
52108.0,STARLINK-3698,PAYLOAD,2022-04-25 14:00:01,15.7313174,0.0001482,53.2154,319.0602,117.0813,0.9378,0.00046593,0.00065087,0.0,0 STARLINK-3698,1 52108U 22029W   22115.58334491  .00065087  00000-0  46593-3 0  9995,2 52108  53.2154 319.0602 0001482 117.0813   0.9378 15.73131740  3715,6728.09,91.537,350.952,348.958,0.0
52108.0,STARLINK-3698,PAYLOAD,2022-04-25 22:00:00,15.7319506,0.0001268,53.2151,317.4129,107.562,99.35,-5.9238e-05,-8.923e-05,0.0,0 STARLINK-3698,1 52108U 22029W   22115.91667824 -.00008923  00000-0 -59238-4 0  9990,2 52108  53.2151 317.4129 0001268 107.5620  99.3500 15.73195060  7189,6727.909000000002,91.533,350.62699999999984,348.921,0.0
52108.0,STARLINK-3698,PAYLOAD,2022-04-26 14:00:01,15.73239597,0.0001164,53.2146,314.1118,122.6409,262.1954,9.336e-05,0.00012524,0.0,0 STARLINK-3698,1 52108U 22029W   22116.58335648  .00012524  00000-0  93360-4 0  9994,2 52108  53.2146 314.1118 0001164 122.6409 262.1954 15.73239597  7292,6727.781999999997,91.531,350.43,348.86400000000015,0.0
52108.0,STARLINK-3698,PAYLOAD,2022-04-26 22:00:00,15.73307855,0.0001341,53.2157,312.4607,108.8396,4.919,-0.0017207,-0.00236537,0.0,0 STARLINK-3698,1 52108U 22029W   22116.91667824 -.00236537  00000-0 -17207-2 0  9993,2 52108  53.2157 312.4607 0001341 108.8396   4.9190 15.73307855  7349,6727.5880000000025,91.527,350.355,348.551,0.0
52108.0,STARLINK-3698,PAYLOAD,2022-04-27 06:00:00,15.73031075,0.0001329,53.2169,310.8051,125.9687,76.78699999999998,-0.0013648,-0.0018662,0.0,0 STARLINK-3698,1 52108U 22029W   22117.25001157 -.00186620  00000-0 -13648-2 0  9994,2 52108  53.2169 310.8051 0001329 125.9687  76.7870 15.73031075  7391,6728.377,91.543,351.136,349.348,0.0
52108.0,STARLINK-3698,PAYLOAD,2022-04-27 14:00:01,15.72954523,0.0001259,53.2177,309.1508,118.3136,173.1697,-0.0056375,-0.00719771,0.0,0 STARLINK-3698,1 52108U 22029W   22117.58335648 -.00719771  00000-0 -56375-2 0  9998,2 52108  53.2177 309.1508 0001259 118.3136 173.1697 15.72954523  7441,6728.595,91.547,351.307,349.61300000000006,0.0
52108.0,STARLINK-3698,PAYLOAD,2022-04-28 14:00:01,15.71423103,0.0001274999999999,53.2176,304.2041,110.1108,84.43299999999998,-0.0059956,-0.00717212,0.0,0 STARLINK-3698,1 52108U 22029W   22118.58334491 -.00717212  00000-0 -59956-2 0  9990,2 52108  53.2176 304.2041 0001275 110.1108  84.4330 15.71423103  7605,6732.965999999999,91.637,355.689,353.973,0.0
52108.0,STARLINK-3698,PAYLOAD,2022-04-29 14:00:01,15.69893891,0.0001098,53.2176,299.2687,103.2057,348.9481,-0.0064061,-0.00718337,0.0,0 STARLINK-3698,1 52108U 22029W   22119.58334491 -.00718337  00000-0 -64061-2 0  9993,2 52108  53.2176 299.2687 0001098 103.2057 348.9481 15.69893891  7767,6737.3380000000025,91.726,359.94199999999995,358.463,0.0
52108.0,STARLINK-3698,PAYLOAD,2022-04-29 22:00:00,15.69379716,0.000122,53.2176,297.6276,105.4612,71.3378,-0.0064762,-0.00711395,0.0,0 STARLINK-3698,1 52108U 22029W   22119.91667824 -.00711395  00000-0 -64762-2 0  9994,2 52108  53.2176 297.6276 0001220 105.4612  71.3378 15.69379716  3696,6738.809,91.756,361.496,359.852,0.0
52108.0,STARLINK-3698,PAYLOAD,2022-04-30 12:00:00,15.68491306,0.000126,53.2175,294.7536,104.6206,128.8312,-0.0067728,-0.00716594,0.0,0 STARLINK-3698,1 52108U 22029W   22120.50001157 -.00716594  00000-0 -67728-2 0  9993,2 52108  53.2175 294.7536 0001260 104.6206 128.8312 15.68491306  7909,6741.353,91.808,364.068,362.369,0.0
52108.0,STARLINK-3698,PAYLOAD,2022-04-30 14:00:01,15.68365267,0.0001097,53.2176,294.3443,107.659,236.5896,-0.0068457,-0.00720191,0.0,0 STARLINK-3698,1 52108U 22029W   22120.58334491 -.00720191  00000-0 -68457-2 0  9999,2 52108  53.2176 294.3443 0001097 107.6590 236.5896 15.68365267  3670,6741.715,91.815,364.319,362.84,0.0
52108.0,STARLINK-3698,PAYLOAD,2022-04-30 22:00:00,15.67850409,0.0001002,53.2173,292.7071,85.9581,341.0974,-0.0069071,-0.00712082,0.0,0 STARLINK-3698,1 52108U 22029W   22120.91667824 -.00712082  00000-0 -69071-2 0  9998,2 52108  53.2173 292.7071 0001002  85.9581 341.0974 15.67850409  3709,6743.19,91.845,365.731,364.38,0.0
52108.0,STARLINK-3698,PAYLOAD,2022-05-01 14:00:01,15.66833252,0.0001214,53.2176,289.4311,94.7123,136.1172,-0.0072471,-0.00716336,0.0,0 STARLINK-3698,1 52108U 22029W   22121.58334491 -.00716336  00000-0 -72471-2 0  9997,2 52108  53.2176 289.4311 0001214  94.7123 136.1172 15.66833252  8071,6746.108,91.905,368.792,367.155,0.0
52108.0,STARLINK-3698,PAYLOAD,2022-05-01 22:00:01,15.66321517,0.0001102,53.2175,287.7973,103.2447,208.6175,-0.0073621,-0.00712986,0.0,0 STARLINK-3698,1 52108U 22029W   22121.91668981 -.00712986  00000-0 -73621-2 0  9993,2 52108  53.2175 287.7973 0001102 103.2447 208.6175 15.66321517  3705,6747.578,91.935,370.186,368.699,0.0
52108.0,STARLINK-3698,PAYLOAD,2022-05-02 14:00:01,15.65303988,0.0001114,53.2175,284.5293,80.0878,31.8064,-0.0077208,-0.00717237,0.0,0 STARLINK-3698,1 52108U 22029W   22122.58334491 -.00717237  00000-0 -77208-2 0  9992,2 52108  53.2175 284.5293 0001114  80.0878  31.8064 15.65303988  8235,6750.502,91.995,373.119,371.615,0.0
52108.0,STARLINK-3698,PAYLOAD,2022-05-02 22:00:01,15.64789412,0.0001208,53.2172,282.8988,82.073,109.0167,-0.0077839,-0.00709055,0.0,0 STARLINK-3698,1 52108U 22029W   22122.91668981 -.00709055  00000-0 -77839-2 0  9992,2 52108  53.2172 282.8988 0001208  82.0730 109.0167 15.64789412  3705,6751.981,92.025,374.662,373.031,0.0
